{"type":"FeatureCollection","features":[{"type":"Feature","properties":{"name":"Indonesia","rank":2,"minz":1.7},"geometry":{"type":"Point","coordinates":[101.892949,-0.954404]}},{"type":"Feature","properties":{"name":"Malaysia","rank":3,"minz":3},"geometry":{"type":"Point","coordinates":[113.83708,2.528667]}},{"type":"Feature","properties":{"name":"Chile","rank":2,"minz":1.7},"geometry":{"type":"Point","coordinates":[-72.318871,-38.151771]}},{"type":"Feature","properties":{"name":"Bolivia","rank":3,"minz":3},"geometry":{"type":"Point","coordinates":[-64.593433,-16.666015]}},{"type":"Feature","properties":{"name":"Peru","rank":2,"minz":2},"geometry":{"type":"Point","coordinates":[-72.90016,-12.976679]}},{"type":"Feature","properties":{"name":"Argentina","rank":2,"minz":2},"geometry":{"type":"Point","coordinates":[-64.173331,-33.501159]}},{"type":"Feature","properties":{"name":"Dhekelia","rank":3,"minz":6.5},"geometry":{"type":"Point","coordinates":[33.790583,35.011042]}},{"type":"Feature","properties":{"name":"Cyprus","rank":5,"minz":4.5},"geometry":{"type":"Point","coordinates":[33.084182,34.913329]}},{"type":"Feature","properties":{"name":"India","rank":2,"minz":1.7},"geometry":{"type":"Point","coordinates":[79.358105,22.686852]}},{"type":"Feature","properties":{"name":"China","rank":2,"minz":1.7},"geometry":{"type":"Point","coordinates":[106.337289,32.498178]}},{"type":"Feature","properties":{"name":"Israel","rank":4,"minz":3},"geometry":{"type":"Point","coordinates":[34.847915,30.911148]}},{"type":"Feature","properties":{"name":"Palestine","rank":5,"minz":4.5},"geometry":{"type":"Point","coordinates":[35.291341,32.047431]}},{"type":"Feature","properties":{"name":"Lebanon","rank":5,"minz":4},"geometry":{"type":"Point","coordinates":[35.992892,34.133368]}},{"type":"Feature","properties":{"name":"Ethiopia","rank":2,"minz":2},"geometry":{"type":"Point","coordinates":[39.0886,8.032795]}},{"type":"Feature","properties":{"name":"S. Sudan","rank":3,"minz":3},"geometry":{"type":"Point","coordinates":[30.390151,7.230477]}},{"type":"Feature","properties":{"name":"Somalia","rank":6,"minz":4},"geometry":{"type":"Point","coordinates":[45.19238,3.568925]}},{"type":"Feature","properties":{"name":"Kenya","rank":2,"minz":1.7},"geometry":{"type":"Point","coordinates":[37.907632,0.549043]}},{"type":"Feature","properties":{"name":"Malawi","rank":6,"minz":4},"geometry":{"type":"Point","coordinates":[33.608082,-13.386737]}},{"type":"Feature","properties":{"name":"Tanzania","rank":3,"minz":3},"geometry":{"type":"Point","coordinates":[34.959183,-6.051866]}},{"type":"Feature","properties":{"name":"Syria","rank":3,"minz":3},"geometry":{"type":"Point","coordinates":[38.277783,35.006636]}},{"type":"Feature","properties":{"name":"Somaliland","rank":5,"minz":4.5},"geometry":{"type":"Point","coordinates":[46.731595,9.443889]}},{"type":"Feature","properties":{"name":"France","rank":2,"minz":1.7},"geometry":{"type":"Point","coordinates":[2.552275,46.696113]}},{"type":"Feature","properties":{"name":"Suriname","rank":4,"minz":4},"geometry":{"type":"Point","coordinates":[-55.91094,4.143987]}},{"type":"Feature","properties":{"name":"Guyana","rank":4,"minz":4},"geometry":{"type":"Point","coordinates":[-58.942643,5.124317]}},{"type":"Feature","properties":{"name":"South Korea","rank":2,"minz":2.5},"geometry":{"type":"Point","coordinates":[128.129504,36.384924]}},{"type":"Feature","properties":{"name":"North Korea","rank":3,"minz":3},"geometry":{"type":"Point","coordinates":[126.444516,39.885252]}},{"type":"Feature","properties":{"name":"Morocco","rank":3,"minz":2.7},"geometry":{"type":"Point","coordinates":[-7.187296,31.650723]}},{"type":"Feature","properties":{"name":"W. Sahara","rank":7,"minz":6},"geometry":{"type":"Point","coordinates":[-12.630304,23.967592]}},{"type":"Feature","properties":{"name":"Costa Rica","rank":5,"minz":2.5},"geometry":{"type":"Point","coordinates":[-84.077922,10.0651]}},{"type":"Feature","properties":{"name":"Nicaragua","rank":5,"minz":4},"geometry":{"type":"Point","coordinates":[-85.069347,12.670697]}},{"type":"Feature","properties":{"name":"Congo","rank":4,"minz":4},"geometry":{"type":"Point","coordinates":[15.9005,0.142331]}},{"type":"Feature","properties":{"name":"Dem. Rep. Congo","rank":2,"minz":2},"geometry":{"type":"Point","coordinates":[23.458829,-1.858167]}},{"type":"Feature","properties":{"name":"Bhutan","rank":5,"minz":4},"geometry":{"type":"Point","coordinates":[90.040294,27.536685]}},{"type":"Feature","properties":{"name":"Ukraine","rank":3,"minz":2.7},"geometry":{"type":"Point","coordinates":[32.140865,49.724739]}},{"type":"Feature","properties":{"name":"Belarus","rank":4,"minz":3},"geometry":{"type":"Point","coordinates":[28.417701,53.821888]}},{"type":"Feature","properties":{"name":"Namibia","rank":3,"minz":3},"geometry":{"type":"Point","coordinates":[17.108166,-20.575298]}},{"type":"Feature","properties":{"name":"South Africa","rank":2,"minz":1.7},"geometry":{"type":"Point","coordinates":[23.665734,-29.708776]}},{"type":"Feature","properties":{"name":"St-Martin","rank":6,"minz":5},"geometry":{"type":"Point","coordinates":[-63.049399,18.081302]}},{"type":"Feature","properties":{"name":"Sint Maarten","rank":6,"minz":5},"geometry":{"type":"Point","coordinates":[-63.070133,18.04088]}},{"type":"Feature","properties":{"name":"Oman","rank":4,"minz":4},"geometry":{"type":"Point","coordinates":[57.336553,22.120427]}},{"type":"Feature","properties":{"name":"Uzbekistan","rank":3,"minz":3},"geometry":{"type":"Point","coordinates":[64.005429,41.693603]}},{"type":"Feature","properties":{"name":"Kazakhstan","rank":3,"minz":2.7},"geometry":{"type":"Point","coordinates":[68.685548,49.054149]}},{"type":"Feature","properties":{"name":"Tajikistan","rank":4,"minz":4},"geometry":{"type":"Point","coordinates":[72.587276,38.199835]}},{"type":"Feature","properties":{"name":"Lithuania","rank":5,"minz":4},"geometry":{"type":"Point","coordinates":[24.089932,55.103703]}},{"type":"Feature","properties":{"name":"Brazil","rank":2,"minz":1.7},"geometry":{"type":"Point","coordinates":[-49.55945,-12.098687]}},{"type":"Feature","properties":{"name":"Uruguay","rank":4,"minz":3},"geometry":{"type":"Point","coordinates":[-55.966942,-32.961127]}},{"type":"Feature","properties":{"name":"Mongolia","rank":3,"minz":3},"geometry":{"type":"Point","coordinates":[104.150405,45.997488]}},{"type":"Feature","properties":{"name":"Russia","rank":2,"minz":1.7},"geometry":{"type":"Point","coordinates":[44.686469,58.249357]}},{"type":"Feature","properties":{"name":"Czechia","rank":5,"minz":4},"geometry":{"type":"Point","coordinates":[15.377555,49.882364]}},{"type":"Feature","properties":{"name":"Germany","rank":2,"minz":1.7},"geometry":{"type":"Point","coordinates":[9.678348,50.961733]}},{"type":"Feature","properties":{"name":"Estonia","rank":6,"minz":3},"geometry":{"type":"Point","coordinates":[25.867126,58.724865]}},{"type":"Feature","properties":{"name":"Latvia","rank":5,"minz":4},"geometry":{"type":"Point","coordinates":[25.458723,57.066872]}},{"type":"Feature","properties":{"name":"Norway","rank":3,"minz":3},"geometry":{"type":"Point","coordinates":[9.679975,61.357092]}},{"type":"Feature","properties":{"name":"Sweden","rank":3,"minz":2},"geometry":{"type":"Point","coordinates":[19.01705,65.85918]}},{"type":"Feature","properties":{"name":"Finland","rank":3,"minz":3},"geometry":{"type":"Point","coordinates":[27.276449,63.252361]}},{"type":"Feature","properties":{"name":"Vietnam","rank":2,"minz":2},"geometry":{"type":"Point","coordinates":[105.387292,21.715416]}},{"type":"Feature","properties":{"name":"Cambodia","rank":3,"minz":3},"geometry":{"type":"Point","coordinates":[104.50487,12.647584]}},{"type":"Feature","properties":{"name":"Luxembourg","rank":6,"minz":5.7},"geometry":{"type":"Point","coordinates":[6.07762,49.733732]}},{"type":"Feature","properties":{"name":"United Arab Emirates","rank":4,"minz":4},"geometry":{"type":"Point","coordinates":[54.547256,23.466285]}},{"type":"Feature","properties":{"name":"Belgium","rank":2,"minz":4},"geometry":{"type":"Point","coordinates":[4.800448,50.785392]}},{"type":"Feature","properties":{"name":"Georgia","rank":5,"minz":4},"geometry":{"type":"Point","coordinates":[43.735724,41.870087]}},{"type":"Feature","properties":{"name":"North Macedonia","rank":6,"minz":5},"geometry":{"type":"Point","coordinates":[21.555839,41.558223]}},{"type":"Feature","properties":{"name":"Albania","rank":6,"minz":5},"geometry":{"type":"Point","coordinates":[20.11384,40.654855]}},{"type":"Feature","properties":{"name":"Azerbaijan","rank":5,"minz":4},"geometry":{"type":"Point","coordinates":[47.210994,40.402387]}},{"type":"Feature","properties":{"name":"Kosovo","rank":6,"minz":5},"geometry":{"type":"Point","coordinates":[20.860719,42.593587]}},{"type":"Feature","properties":{"name":"Turkey","rank":2,"minz":2},"geometry":{"type":"Point","coordinates":[34.508268,39.345388]}},{"type":"Feature","properties":{"name":"Spain","rank":2,"minz":2},"geometry":{"type":"Point","coordinates":[-3.464718,40.090953]}},{"type":"Feature","properties":{"name":"Laos","rank":4,"minz":4},"geometry":{"type":"Point","coordinates":[102.533912,19.431821]}},{"type":"Feature","properties":{"name":"Kyrgyzstan","rank":4,"minz":3},"geometry":{"type":"Point","coordinates":[74.532637,41.66854]}},{"type":"Feature","properties":{"name":"Armenia","rank":6,"minz":5},"geometry":{"type":"Point","coordinates":[44.800564,40.459077]}},{"type":"Feature","properties":{"name":"Denmark","rank":4,"minz":3},"geometry":{"type":"Point","coordinates":[9.018163,55.966965]}},{"type":"Feature","properties":{"name":"Libya","rank":3,"minz":3},"geometry":{"type":"Point","coordinates":[18.011015,26.638944]}},{"type":"Feature","properties":{"name":"Tunisia","rank":3,"minz":3},"geometry":{"type":"Point","coordinates":[9.007881,33.687263]}},{"type":"Feature","properties":{"name":"Romania","rank":3,"minz":3},"geometry":{"type":"Point","coordinates":[24.972624,45.733237]}},{"type":"Feature","properties":{"name":"Hungary","rank":5,"minz":4},"geometry":{"type":"Point","coordinates":[19.447867,47.086841]}},{"type":"Feature","properties":{"name":"Slovakia","rank":6,"minz":4},"geometry":{"type":"Point","coordinates":[19.049868,48.734044]}},{"type":"Feature","properties":{"name":"Poland","rank":3,"minz":2.5},"geometry":{"type":"Point","coordinates":[19.490468,51.990316]}},{"type":"Feature","properties":{"name":"Ireland","rank":3,"minz":3},"geometry":{"type":"Point","coordinates":[-7.798588,53.078726]}},{"type":"Feature","properties":{"name":"United Kingdom","rank":2,"minz":1.7},"geometry":{"type":"Point","coordinates":[-2.116346,54.402739]}},{"type":"Feature","properties":{"name":"Greece","rank":3,"minz":2.7},"geometry":{"type":"Point","coordinates":[21.72568,39.492763]}},{"type":"Feature","properties":{"name":"Zambia","rank":3,"minz":3},"geometry":{"type":"Point","coordinates":[26.395298,-14.660804]}},{"type":"Feature","properties":{"name":"Sierra Leone","rank":4,"minz":4},"geometry":{"type":"Point","coordinates":[-11.763677,8.617449]}},{"type":"Feature","properties":{"name":"Guinea","rank":3,"minz":3},"geometry":{"type":"Point","coordinates":[-10.016402,10.618516]}},{"type":"Feature","properties":{"name":"Liberia","rank":4,"minz":4},"geometry":{"type":"Point","coordinates":[-9.460379,6.447177]}},{"type":"Feature","properties":{"name":"Central African Rep.","rank":4,"minz":4},"geometry":{"type":"Point","coordinates":[20.906897,6.989681]}},{"type":"Feature","properties":{"name":"Sudan","rank":3,"minz":2.5},"geometry":{"type":"Point","coordinates":[29.260657,16.330746]}},{"type":"Feature","properties":{"name":"Djibouti","rank":5,"minz":4},"geometry":{"type":"Point","coordinates":[42.498825,11.976343]}},{"type":"Feature","properties":{"name":"Eritrea","rank":4,"minz":4},"geometry":{"type":"Point","coordinates":[38.285566,15.787401]}},{"type":"Feature","properties":{"name":"Austria","rank":4,"minz":3},"geometry":{"type":"Point","coordinates":[14.130515,47.518859]}},{"type":"Feature","properties":{"name":"Iraq","rank":3,"minz":3},"geometry":{"type":"Point","coordinates":[43.26181,33.09403]}},{"type":"Feature","properties":{"name":"Italy","rank":2,"minz":2},"geometry":{"type":"Point","coordinates":[11.076907,44.732482]}},{"type":"Feature","properties":{"name":"Switzerland","rank":4,"minz":4},"geometry":{"type":"Point","coordinates":[7.463965,46.719114]}},{"type":"Feature","properties":{"name":"Iran","rank":2,"minz":2.5},"geometry":{"type":"Point","coordinates":[54.931495,32.166225]}},{"type":"Feature","properties":{"name":"Netherlands","rank":5,"minz":4},"geometry":{"type":"Point","coordinates":[5.61144,52.422211]}},{"type":"Feature","properties":{"name":"Liechtenstein","rank":6,"minz":5},"geometry":{"type":"Point","coordinates":[9.559439,47.111405]}},{"type":"Feature","properties":{"name":"Côte d'Ivoire","rank":3,"minz":2.5},"geometry":{"type":"Point","coordinates":[-5.568618,7.49139]}},{"type":"Feature","properties":{"name":"Serbia","rank":5,"minz":4},"geometry":{"type":"Point","coordinates":[20.787989,44.189919]}},{"type":"Feature","properties":{"name":"Mali","rank":3,"minz":3},"geometry":{"type":"Point","coordinates":[-2.038455,18.692713]}},{"type":"Feature","properties":{"name":"Senegal","rank":3,"minz":2.7},"geometry":{"type":"Point","coordinates":[-14.778586,15.138125]}},{"type":"Feature","properties":{"name":"Nigeria","rank":2,"minz":1.7},"geometry":{"type":"Point","coordinates":[7.50322,9.439799]}},{"type":"Feature","properties":{"name":"Benin","rank":5,"minz":4},"geometry":{"type":"Point","coordinates":[2.352018,10.324775]}},{"type":"Feature","properties":{"name":"Angola","rank":3,"minz":3},"geometry":{"type":"Point","coordinates":[17.984249,-12.182762]}},{"type":"Feature","properties":{"name":"Croatia","rank":6,"minz":4},"geometry":{"type":"Point","coordinates":[16.37241,45.805799]}},{"type":"Feature","properties":{"name":"Slovenia","rank":6,"minz":5},"geometry":{"type":"Point","coordinates":[14.915312,46.06076]}},{"type":"Feature","properties":{"name":"Qatar","rank":5,"minz":4},"geometry":{"type":"Point","coordinates":[51.143509,25.237383]}},{"type":"Feature","properties":{"name":"Saudi Arabia","rank":2,"minz":1.7},"geometry":{"type":"Point","coordinates":[44.6996,23.806908]}},{"type":"Feature","properties":{"name":"Botswana","rank":4,"minz":4},"geometry":{"type":"Point","coordinates":[24.179216,-22.102634]}},{"type":"Feature","properties":{"name":"Zimbabwe","rank":3,"minz":2.5},"geometry":{"type":"Point","coordinates":[29.925444,-18.91164]}},{"type":"Feature","properties":{"name":"Pakistan","rank":2,"minz":2.7},"geometry":{"type":"Point","coordinates":[68.545632,29.328389]}},{"type":"Feature","properties":{"name":"Bulgaria","rank":4,"minz":4},"geometry":{"type":"Point","coordinates":[25.15709,42.508785]}},{"type":"Feature","properties":{"name":"Thailand","rank":3,"minz":2.7},"geometry":{"type":"Point","coordinates":[101.073198,15.45974]}},{"type":"Feature","properties":{"name":"San Marino","rank":6,"minz":5},"geometry":{"type":"Point","coordinates":[12.441206,43.933916]}},{"type":"Feature","properties":{"name":"Haiti","rank":5,"minz":4},"geometry":{"type":"Point","coordinates":[-72.224051,19.263784]}},{"type":"Feature","properties":{"name":"Dominican Rep.","rank":5,"minz":4.5},"geometry":{"type":"Point","coordinates":[-70.653998,19.104137]}},{"type":"Feature","properties":{"name":"Chad","rank":3,"minz":3},"geometry":{"type":"Point","coordinates":[18.645041,15.142959]}},{"type":"Feature","properties":{"name":"Kuwait","rank":6,"minz":5},"geometry":{"type":"Point","coordinates":[47.313999,29.413628]}},{"type":"Feature","properties":{"name":"El Salvador","rank":6,"minz":5},"geometry":{"type":"Point","coordinates":[-88.890124,13.685371]}},{"type":"Feature","properties":{"name":"Guatemala","rank":3,"minz":3},"geometry":{"type":"Point","coordinates":[-90.497134,14.982133]}},{"type":"Feature","properties":{"name":"Timor-Leste","rank":5,"minz":4},"geometry":{"type":"Point","coordinates":[125.854679,-8.803705]}},{"type":"Feature","properties":{"name":"Brunei","rank":6,"minz":4},"geometry":{"type":"Point","coordinates":[114.551943,4.448298]}},{"type":"Feature","properties":{"name":"Monaco","rank":6,"minz":5},"geometry":{"type":"Point","coordinates":[7.398291,43.739652]}},{"type":"Feature","properties":{"name":"Algeria","rank":3,"minz":2.5},"geometry":{"type":"Point","coordinates":[2.808241,27.397406]}},{"type":"Feature","properties":{"name":"Mozambique","rank":3,"minz":3},"geometry":{"type":"Point","coordinates":[37.83789,-13.94323]}},{"type":"Feature","properties":{"name":"eSwatini","rank":4,"minz":4},"geometry":{"type":"Point","coordinates":[31.467264,-26.533676]}},{"type":"Feature","properties":{"name":"Burundi","rank":6,"minz":4},"geometry":{"type":"Point","coordinates":[29.917086,-3.332836]}},{"type":"Feature","properties":{"name":"Rwanda","rank":3,"minz":3},"geometry":{"type":"Point","coordinates":[30.103894,-1.897196]}},{"type":"Feature","properties":{"name":"Myanmar","rank":3,"minz":3},"geometry":{"type":"Point","coordinates":[95.804497,21.573855]}},{"type":"Feature","properties":{"name":"Bangladesh","rank":3,"minz":3},"geometry":{"type":"Point","coordinates":[89.684963,24.214956]}},{"type":"Feature","properties":{"name":"Andorra","rank":6,"minz":5},"geometry":{"type":"Point","coordinates":[1.539409,42.547643]}},{"type":"Feature","properties":{"name":"Afghanistan","rank":3,"minz":3},"geometry":{"type":"Point","coordinates":[66.496586,34.164262]}},{"type":"Feature","properties":{"name":"Montenegro","rank":6,"minz":5},"geometry":{"type":"Point","coordinates":[19.143727,42.803101]}},{"type":"Feature","properties":{"name":"Bosnia and Herz.","rank":5,"minz":4.5},"geometry":{"type":"Point","coordinates":[18.06841,44.091051]}},{"type":"Feature","properties":{"name":"Uganda","rank":3,"minz":3},"geometry":{"type":"Point","coordinates":[32.948555,1.972589]}},{"type":"Feature","properties":{"name":"USNB Guantanamo Bay","rank":10,"minz":6},"geometry":{"type":"Point","coordinates":[-75.117277,19.918398]}},{"type":"Feature","properties":{"name":"Cuba","rank":3,"minz":2.7},"geometry":{"type":"Point","coordinates":[-77.975855,21.334024]}},{"type":"Feature","properties":{"name":"Honduras","rank":5,"minz":4.5},"geometry":{"type":"Point","coordinates":[-86.887604,14.794801]}},{"type":"Feature","properties":{"name":"Ecuador","rank":3,"minz":3},"geometry":{"type":"Point","coordinates":[-78.188375,-1.259076]}},{"type":"Feature","properties":{"name":"Colombia","rank":2,"minz":3},"geometry":{"type":"Point","coordinates":[-73.174347,3.373111]}},{"type":"Feature","properties":{"name":"Paraguay","rank":4,"minz":3},"geometry":{"type":"Point","coordinates":[-60.146394,-21.674509]}},{"type":"Feature","properties":{"name":"Brazilian I.","rank":9,"minz":7.7},"geometry":{"type":"Point","coordinates":[-57.623042,-30.187555]}},{"type":"Feature","properties":{"name":"Portugal","rank":2,"minz":3},"geometry":{"type":"Point","coordinates":[-8.271754,39.606675]}},{"type":"Feature","properties":{"name":"Moldova","rank":6,"minz":5},"geometry":{"type":"Point","coordinates":[28.487904,47.434999]}},{"type":"Feature","properties":{"name":"Turkmenistan","rank":4,"minz":3},"geometry":{"type":"Point","coordinates":[58.676647,39.855246]}},{"type":"Feature","properties":{"name":"Jordan","rank":4,"minz":4},"geometry":{"type":"Point","coordinates":[36.375991,30.805025]}},{"type":"Feature","properties":{"name":"Nepal","rank":3,"minz":3},"geometry":{"type":"Point","coordinates":[83.639914,28.297925]}},{"type":"Feature","properties":{"name":"Lesotho","rank":6,"minz":4},"geometry":{"type":"Point","coordinates":[28.246639,-29.480158]}},{"type":"Feature","properties":{"name":"Cameroon","rank":3,"minz":3},"geometry":{"type":"Point","coordinates":[12.473488,4.585041]}},{"type":"Feature","properties":{"name":"Gabon","rank":4,"minz":3},"geometry":{"type":"Point","coordinates":[11.835939,-0.437739]}},{"type":"Feature","properties":{"name":"Niger","rank":3,"minz":3},"geometry":{"type":"Point","coordinates":[9.504356,17.446195]}},{"type":"Feature","properties":{"name":"Burkina Faso","rank":3,"minz":3},"geometry":{"type":"Point","coordinates":[-1.36388,12.673048]}},{"type":"Feature","properties":{"name":"Togo","rank":6,"minz":5},"geometry":{"type":"Point","coordinates":[1.058113,8.80722]}},{"type":"Feature","properties":{"name":"Ghana","rank":3,"minz":2.7},"geometry":{"type":"Point","coordinates":[-1.036941,7.717639]}},{"type":"Feature","properties":{"name":"Guinea-Bissau","rank":6,"minz":5},"geometry":{"type":"Point","coordinates":[-14.52413,12.163712]}},{"type":"Feature","properties":{"name":"Gibraltar","rank":5,"minz":5},"geometry":{"type":"Point","coordinates":[-5.3467,36.129426]}},{"type":"Feature","properties":{"name":"United States of America","rank":2,"minz":1.7},"geometry":{"type":"Point","coordinates":[-97.482602,39.538479]}},{"type":"Feature","properties":{"name":"Canada","rank":2,"minz":1.7},"geometry":{"type":"Point","coordinates":[-101.9107,60.324287]}},{"type":"Feature","properties":{"name":"Mexico","rank":2,"minz":2},"geometry":{"type":"Point","coordinates":[-102.289448,23.919988]}},{"type":"Feature","properties":{"name":"Belize","rank":6,"minz":5},"geometry":{"type":"Point","coordinates":[-88.712962,17.202068]}},{"type":"Feature","properties":{"name":"Panama","rank":4,"minz":4},"geometry":{"type":"Point","coordinates":[-80.352106,8.72198]}},{"type":"Feature","properties":{"name":"Venezuela","rank":3,"minz":2.5},"geometry":{"type":"Point","coordinates":[-64.599381,7.182476]}},{"type":"Feature","properties":{"name":"Papua New Guinea","rank":2,"minz":2.5},"geometry":{"type":"Point","coordinates":[143.910216,-5.695285]}},{"type":"Feature","properties":{"name":"Egypt","rank":2,"minz":1.7},"geometry":{"type":"Point","coordinates":[29.445837,26.186173]}},{"type":"Feature","properties":{"name":"Yemen","rank":3,"minz":3},"geometry":{"type":"Point","coordinates":[45.874383,15.328226]}},{"type":"Feature","properties":{"name":"Mauritania","rank":3,"minz":3},"geometry":{"type":"Point","coordinates":[-9.740299,19.587062]}},{"type":"Feature","properties":{"name":"Eq. Guinea","rank":4,"minz":4},"geometry":{"type":"Point","coordinates":[8.9902,2.333]}},{"type":"Feature","properties":{"name":"Gambia","rank":6,"minz":5},"geometry":{"type":"Point","coordinates":[-14.998318,13.641721]}},{"type":"Feature","properties":{"name":"Hong Kong","rank":4,"minz":4},"geometry":{"type":"Point","coordinates":[114.097769,22.448829]}},{"type":"Feature","properties":{"name":"Vatican","rank":6,"minz":5},"geometry":{"type":"Point","coordinates":[12.453418,41.903323]}},{"type":"Feature","properties":{"name":"N. Cyprus","rank":6,"minz":6},"geometry":{"type":"Point","coordinates":[33.692434,35.216071]}},{"type":"Feature","properties":{"name":"Cyprus U.N. Buffer Zone","rank":9,"minz":7.7},"geometry":{"type":"Point","coordinates":[33.288134,35.140713]}},{"type":"Feature","properties":{"name":"Siachen Glacier","rank":5,"minz":6.5},"geometry":{"type":"Point","coordinates":[77.129553,35.340606]}},{"type":"Feature","properties":{"name":"Baikonur","rank":5,"minz":6},"geometry":{"type":"Point","coordinates":[63.383897,45.978332]}},{"type":"Feature","properties":{"name":"Akrotiri","rank":3,"minz":6.5},"geometry":{"type":"Point","coordinates":[32.979025,34.60083]}},{"type":"Feature","properties":{"name":"Southern Patagonian Ice Field","rank":9,"minz":7.7},"geometry":{"type":"Point","coordinates":[-73.31378,-49.511034]}},{"type":"Feature","properties":{"name":"Bir Tawil","rank":8,"minz":7},"geometry":{"type":"Point","coordinates":[33.673428,21.860442]}},{"type":"Feature","properties":{"name":"Antarctica","rank":4,"minz":4},"geometry":{"type":"Point","coordinates":[35.885455,-79.843222]}},{"type":"Feature","properties":{"name":"Australia","rank":2,"minz":1.7},"geometry":{"type":"Point","coordinates":[134.04972,-24.129522]}},{"type":"Feature","properties":{"name":"Greenland","rank":3,"minz":1.7},"geometry":{"type":"Point","coordinates":[-39.335251,74.319387]}},{"type":"Feature","properties":{"name":"Fiji","rank":6,"minz":3},"geometry":{"type":"Point","coordinates":[177.975427,-17.826099]}},{"type":"Feature","properties":{"name":"New Zealand","rank":2,"minz":2},"geometry":{"type":"Point","coordinates":[172.787,-39.759]}},{"type":"Feature","properties":{"name":"New Caledonia","rank":3,"minz":4.6},"geometry":{"type":"Point","coordinates":[165.084004,-21.064697]}},{"type":"Feature","properties":{"name":"Madagascar","rank":3,"minz":2.7},"geometry":{"type":"Point","coordinates":[46.704241,-18.628288]}},{"type":"Feature","properties":{"name":"Philippines","rank":2,"minz":2.5},"geometry":{"type":"Point","coordinates":[122.465,11.198]}},{"type":"Feature","properties":{"name":"Sri Lanka","rank":3,"minz":3},"geometry":{"type":"Point","coordinates":[80.704823,7.581097]}},{"type":"Feature","properties":{"name":"Curaçao","rank":5,"minz":5},"geometry":{"type":"Point","coordinates":[-68.920578,12.145039]}},{"type":"Feature","properties":{"name":"Aruba","rank":5,"minz":5},"geometry":{"type":"Point","coordinates":[-69.972795,12.5174]}},{"type":"Feature","properties":{"name":"Bahamas","rank":4,"minz":4},"geometry":{"type":"Point","coordinates":[-77.146688,26.401789]}},{"type":"Feature","properties":{"name":"Turks and Caicos Is.","rank":6,"minz":5},"geometry":{"type":"Point","coordinates":[-71.752704,21.81663]}},{"type":"Feature","properties":{"name":"Taiwan","rank":3,"minz":4.5},"geometry":{"type":"Point","coordinates":[120.868204,23.652408]}},{"type":"Feature","properties":{"name":"Japan","rank":2,"minz":1.7},"geometry":{"type":"Point","coordinates":[138.44217,36.142538]}},{"type":"Feature","properties":{"name":"St. Pierre and Miquelon","rank":4,"minz":5},"geometry":{"type":"Point","coordinates":[-56.332352,47.040344]}},{"type":"Feature","properties":{"name":"Iceland","rank":3,"minz":2},"geometry":{"type":"Point","coordinates":[-18.673711,64.779286]}},{"type":"Feature","properties":{"name":"Pitcairn Is.","rank":4,"minz":5},"geometry":{"type":"Point","coordinates":[-128.317536,-24.364576]}},{"type":"Feature","properties":{"name":"Fr. Polynesia","rank":4,"minz":3.5},"geometry":{"type":"Point","coordinates":[-149.46157,-17.628081]}},{"type":"Feature","properties":{"name":"Fr. S. Antarctic Lands","rank":6,"minz":4},"geometry":{"type":"Point","coordinates":[69.122136,-49.303721]}},{"type":"Feature","properties":{"name":"Seychelles","rank":6,"minz":5},"geometry":{"type":"Point","coordinates":[55.480175,-4.676659]}},{"type":"Feature","properties":{"name":"Kiribati","rank":6,"minz":5},"geometry":{"type":"Point","coordinates":[-157.384577,1.820437]}},{"type":"Feature","properties":{"name":"Marshall Is.","rank":6,"minz":5},"geometry":{"type":"Point","coordinates":[171.193609,7.082568]}},{"type":"Feature","properties":{"name":"Trinidad and Tobago","rank":5,"minz":4.5},"geometry":{"type":"Point","coordinates":[-60.9184,10.9989]}},{"type":"Feature","properties":{"name":"Grenada","rank":6,"minz":4},"geometry":{"type":"Point","coordinates":[-61.680461,12.113156]}},{"type":"Feature","properties":{"name":"St. Vin. and Gren.","rank":6,"minz":5},"geometry":{"type":"Point","coordinates":[-61.3359,13.0879]}},{"type":"Feature","properties":{"name":"Barbados","rank":5,"minz":4.5},"geometry":{"type":"Point","coordinates":[-59.568966,13.163709]}},{"type":"Feature","properties":{"name":"Saint Lucia","rank":6,"minz":5},"geometry":{"type":"Point","coordinates":[-60.980094,13.892371]}},{"type":"Feature","properties":{"name":"Dominica","rank":6,"minz":4},"geometry":{"type":"Point","coordinates":[-61.344958,15.458829]}},{"type":"Feature","properties":{"name":"U.S. Minor Outlying Is.","rank":5,"minz":7},"geometry":{"type":"Point","coordinates":[166.644535,19.285663]}},{"type":"Feature","properties":{"name":"Montserrat","rank":6,"minz":5},"geometry":{"type":"Point","coordinates":[-62.188252,16.73717]}},{"type":"Feature","properties":{"name":"Antigua and Barb.","rank":6,"minz":5},"geometry":{"type":"Point","coordinates":[-61.790612,17.352249]}},{"type":"Feature","properties":{"name":"St. Kitts and Nevis","rank":6,"minz":5},"geometry":{"type":"Point","coordinates":[-62.757975,17.336558]}},{"type":"Feature","properties":{"name":"U.S. Virgin Is.","rank":6,"minz":5},"geometry":{"type":"Point","coordinates":[-64.779172,17.746706]}},{"type":"Feature","properties":{"name":"St-Barthélemy","rank":6,"minz":5.7},"geometry":{"type":"Point","coordinates":[-62.833193,17.901987]}},{"type":"Feature","properties":{"name":"Puerto Rico","rank":5,"minz":3},"geometry":{"type":"Point","coordinates":[-66.481065,18.234668]}},{"type":"Feature","properties":{"name":"Anguilla","rank":6,"minz":5},"geometry":{"type":"Point","coordinates":[-63.026361,18.242979]}},{"type":"Feature","properties":{"name":"British Virgin Is.","rank":6,"minz":5},"geometry":{"type":"Point","coordinates":[-64.63661,18.426606]}},{"type":"Feature","properties":{"name":"Jamaica","rank":4,"minz":4},"geometry":{"type":"Point","coordinates":[-77.318767,18.137124]}},{"type":"Feature","properties":{"name":"Cayman Is.","rank":5,"minz":5},"geometry":{"type":"Point","coordinates":[-81.24055,19.319862]}},{"type":"Feature","properties":{"name":"Bermuda","rank":6,"minz":4},"geometry":{"type":"Point","coordinates":[-64.763573,32.296592]}},{"type":"Feature","properties":{"name":"Heard I. and McDonald Is.","rank":5,"minz":4.5},"geometry":{"type":"Point","coordinates":[73.50521,-53.103462]}},{"type":"Feature","properties":{"name":"Saint Helena","rank":6,"minz":5},"geometry":{"type":"Point","coordinates":[-5.71262,-15.950487]}},{"type":"Feature","properties":{"name":"Mauritius","rank":5,"minz":4},"geometry":{"type":"Point","coordinates":[57.565848,-20.299506]}},{"type":"Feature","properties":{"name":"Comoros","rank":6,"minz":4},"geometry":{"type":"Point","coordinates":[43.318094,-11.727683]}},{"type":"Feature","properties":{"name":"São Tomé and Principe","rank":6,"minz":5},"geometry":{"type":"Point","coordinates":[7.021,0.9709]}},{"type":"Feature","properties":{"name":"Cabo Verde","rank":4,"minz":4},"geometry":{"type":"Point","coordinates":[-23.639434,15.074761]}},{"type":"Feature","properties":{"name":"Malta","rank":5,"minz":4},"geometry":{"type":"Point","coordinates":[14.433005,35.892886]}},{"type":"Feature","properties":{"name":"Jersey","rank":6,"minz":5},"geometry":{"type":"Point","coordinates":[-2.090146,49.220808]}},{"type":"Feature","properties":{"name":"Guernsey","rank":6,"minz":5},"geometry":{"type":"Point","coordinates":[-2.561736,49.463533]}},{"type":"Feature","properties":{"name":"Isle of Man","rank":6,"minz":5},"geometry":{"type":"Point","coordinates":[-4.530069,54.220833]}},{"type":"Feature","properties":{"name":"Åland","rank":6,"minz":5},"geometry":{"type":"Point","coordinates":[19.869671,60.156467]}},{"type":"Feature","properties":{"name":"Faeroe Is.","rank":6,"minz":4},"geometry":{"type":"Point","coordinates":[-7.058429,62.185604]}},{"type":"Feature","properties":{"name":"Indian Ocean Ter.","rank":5,"minz":5},"geometry":{"type":"Point","coordinates":[105.67259,-10.490789]}},{"type":"Feature","properties":{"name":"Br. Indian Ocean Ter.","rank":5,"minz":5},"geometry":{"type":"Point","coordinates":[71.348349,-6.190826]}},{"type":"Feature","properties":{"name":"Singapore","rank":6,"minz":4},"geometry":{"type":"Point","coordinates":[103.816925,1.366587]}},{"type":"Feature","properties":{"name":"Norfolk Island","rank":5,"minz":4.5},"geometry":{"type":"Point","coordinates":[167.954531,-29.033042]}},{"type":"Feature","properties":{"name":"Cook Is.","rank":4,"minz":4},"geometry":{"type":"Point","coordinates":[-159.785675,-21.215993]}},{"type":"Feature","properties":{"name":"Tonga","rank":4,"minz":4},"geometry":{"type":"Point","coordinates":[-175.163014,-21.210026]}},{"type":"Feature","properties":{"name":"Wallis and Futuna Is.","rank":4,"minz":4.7},"geometry":{"type":"Point","coordinates":[-178.137436,-14.286415]}},{"type":"Feature","properties":{"name":"Samoa","rank":4,"minz":3},"geometry":{"type":"Point","coordinates":[-172.438241,-13.639139]}},{"type":"Feature","properties":{"name":"Solomon Is.","rank":3,"minz":3},"geometry":{"type":"Point","coordinates":[159.170468,-8.029548]}},{"type":"Feature","properties":{"name":"Tuvalu","rank":6,"minz":5},"geometry":{"type":"Point","coordinates":[179.209587,-8.513717]}},{"type":"Feature","properties":{"name":"Maldives","rank":5,"minz":4},"geometry":{"type":"Point","coordinates":[73.507554,4.174441]}},{"type":"Feature","properties":{"name":"Nauru","rank":6,"minz":5},"geometry":{"type":"Point","coordinates":[166.932644,-0.520261]}},{"type":"Feature","properties":{"name":"Micronesia","rank":6,"minz":5},"geometry":{"type":"Point","coordinates":[158.234019,6.887553]}},{"type":"Feature","properties":{"name":"S. Geo. and the Is.","rank":4,"minz":5},"geometry":{"type":"Point","coordinates":[-31.063179,-55.683402]}},{"type":"Feature","properties":{"name":"Falkland Is.","rank":5,"minz":4.5},"geometry":{"type":"Point","coordinates":[-58.738602,-51.608913]}},{"type":"Feature","properties":{"name":"Vanuatu","rank":4,"minz":4},"geometry":{"type":"Point","coordinates":[166.908762,-15.37153]}},{"type":"Feature","properties":{"name":"Niue","rank":4,"minz":4},"geometry":{"type":"Point","coordinates":[-169.862565,-19.045956]}},{"type":"Feature","properties":{"name":"American Samoa","rank":4,"minz":4},"geometry":{"type":"Point","coordinates":[-170.747153,-14.32671]}},{"type":"Feature","properties":{"name":"Palau","rank":6,"minz":5},"geometry":{"type":"Point","coordinates":[134.580157,7.518252]}},{"type":"Feature","properties":{"name":"Guam","rank":6,"minz":3},"geometry":{"type":"Point","coordinates":[144.703614,13.354173]}},{"type":"Feature","properties":{"name":"N. Mariana Is.","rank":6,"minz":5},"geometry":{"type":"Point","coordinates":[145.734397,15.188188]}},{"type":"Feature","properties":{"name":"Bahrain","rank":4,"minz":4},"geometry":{"type":"Point","coordinates":[50.554816,26.055972]}},{"type":"Feature","properties":{"name":"Coral Sea Is.","rank":5,"minz":4.5},"geometry":{"type":"Point","coordinates":[154.390595,-21.029311]}},{"type":"Feature","properties":{"name":"Spratly Is.","rank":6,"minz":6},"geometry":{"type":"Point","coordinates":[115.81956,10.72954]}},{"type":"Feature","properties":{"name":"Clipperton I.","rank":5,"minz":5},"geometry":{"type":"Point","coordinates":[-109.22045,10.297324]}},{"type":"Feature","properties":{"name":"Macao","rank":4,"minz":4},"geometry":{"type":"Point","coordinates":[113.556038,22.129735]}},{"type":"Feature","properties":{"name":"Ashmore and Cartier Is.","rank":5,"minz":4.5},"geometry":{"type":"Point","coordinates":[123.586368,-12.432571]}},{"type":"Feature","properties":{"name":"Bajo Nuevo Bank","rank":8,"minz":7},"geometry":{"type":"Point","coordinates":[-79.845836,15.791588]}},{"type":"Feature","properties":{"name":"Serranilla Bank","rank":5,"minz":7},"geometry":{"type":"Point","coordinates":[-78.638239,15.864308]}},{"type":"Feature","properties":{"name":"Scarborough Reef","rank":6,"minz":6},"geometry":{"type":"Point","coordinates":[117.753812,15.152039]}}]}